{
    "links": {
        "self": "http://www.neowsapp.com/rest/v1/neo/3616347?api_key=iIulBulltgU6a56xZRHN4H3l9WmuAYTsLGpBGhQ2"
    },
    "id": "3616347",
    "neo_reference_id": "3616347",
    "name": "(2012 VG5)",
    "designation": "2012 VG5",
    "nasa_jpl_url": "http://ssd.jpl.nasa.gov/sbdb.cgi?sstr=3616347",
    "absolute_magnitude_h": 24.8,
    "estimated_diameter": {
        "kilometers": {
            "estimated_diameter_min": 0.0291443905,
            "estimated_diameter_max": 0.0651688382
        },
        "meters": {
            "estimated_diameter_min": 29.1443904535,
            "estimated_diameter_max": 65.1688382168
        },
        "miles": {
            "estimated_diameter_min": 0.018109479,
            "estimated_diameter_max": 0.0404940262
        },
        "feet": {
            "estimated_diameter_min": 95.6180819754,
            "estimated_diameter_max": 213.8085311752
        }
    },
    "is_potentially_hazardous_asteroid": false,
    "close_approach_data": [
        {
            "close_approach_date": "2010-11-03",
            "close_approach_date_full": "2010-Nov-03 16:24",
            "epoch_date_close_approach": 1288801440000,
            "relative_velocity": {
                "kilometers_per_second": "9.809401463",
                "kilometers_per_hour": "35313.8452668368",
                "miles_per_hour": "21942.6501326076"
            },
            "miss_distance": {
                "astronomical": "0.0694746069",
                "lunar": "27.0256220841",
                "kilometers": "10393253.211327303",
                "miles": "6458068.0809226614"
            },
            "orbiting_body": "Earth"
        },
        {
            "close_approach_date": "2012-11-07",
            "close_approach_date_full": "2012-Nov-07 12:10",
            "epoch_date_close_approach": 1352290200000,
            "relative_velocity": {
                "kilometers_per_second": "9.6290089238",
                "kilometers_per_hour": "34664.4321257259",
                "miles_per_hour": "21539.1300616767"
            },
            "miss_distance": {
                "astronomical": "0.0557388866",
                "lunar": "21.6824268874",
                "kilometers": "8338418.711531542",
                "miles": "5181253.1294455996"
            },
            "orbiting_body": "Earth"
        },
        {
            "close_approach_date": "2014-11-12",
            "close_approach_date_full": "2014-Nov-12 15:21",
            "epoch_date_close_approach": 1415805660000,
            "relative_velocity": {
                "kilometers_per_second": "9.8514021851",
                "kilometers_per_hour": "35465.0478663948",
                "miles_per_hour": "22036.6015478718"
            },
            "miss_distance": {
                "astronomical": "0.098224214",
                "lunar": "38.209219246",
                "kilometers": "14694133.19682418",
                "miles": "9130510.981086484"
            },
            "orbiting_body": "Earth"
        }
    ],
    "orbital_data": {
        "orbit_id": "11",
        "orbit_determination_date": "2017-04-06 08:48:14",
        "first_observation_date": "2012-11-03",
        "last_observation_date": "2012-11-14",
        "data_arc_in_days": 11,
        "observations_used": 31,
        "orbit_uncertainty": "8",
        "minimum_orbit_intersection": ".0532332",
        "jupiter_tisserand_invariant": "4.265",
        "epoch_osculation": "2456236.5",
        "eccentricity": ".3452070595912366",
        "semi_major_axis": "1.592704665247014",
        "inclination": "16.01814979111079",
        "ascending_node_longitude": "223.6439601102898",
        "orbital_period": "734.1778962140435",
        "perihelion_distance": "1.042891770959847",
        "perihelion_argument": "186.4234867593305",
        "aphelion_distance": "2.14251755953418",
        "perihelion_time": "2456244.239139107371",
        "mean_anomaly": "356.2051566888343",
        "mean_motion": ".4903443727418416",
        "equinox": "J2000",
        "orbit_class": {
            "orbit_class_type": "AMO",
            "orbit_class_description": "Near-Earth asteroid orbits similar to that of 1221 Amor",
            "orbit_class_range": "1.017 AU < q (perihelion) < 1.3 AU"
        }
    },
    "is_sentry_object": false
}